[{"OBJECT_NAME":"STARLINK-2707","OBJECT_ID":"2021-044AH","EPOCH":"2026-01-29T00:00:02.000160","MEAN_MOTION":15.29326662,"ECCENTRICITY":0.00018483,"INCLINATION":53.1551,"RA_OF_ASC_NODE":288.3944,"ARG_OF_PERICENTER":90.6836,"MEAN_ANOMALY":193.0026,"EPHEMERIS_TYPE":0,"CLASSIFICATION_TYPE":"U","NORAD_CAT_ID":48669,"ELEMENT_SET_NO":999,"REV_AT_EPOCH":574,"BSTAR":0.00050886022,"MEAN_MOTION_DOT":0.00014343,"MEAN_MOTION_DDOT":0},{"OBJECT_NAME":"STARLINK-2763","OBJECT_ID":"2021-044AJ","EPOCH":"2026-01-29T00:00:02.000160","MEAN_MOTION":15.27041037,"ECCENTRICITY":0.000156,"INCLINATION":53.1455,"RA_OF_ASC_NODE":288.5665,"ARG_OF_PERICENTER":92.1169,"MEAN_ANOMALY":116.5335,"EPHEMERIS_TYPE":0,"CLASSIFICATION_TYPE":"U","NORAD_CAT_ID":48670,"ELEMENT_SET_NO":999,"REV_AT_EPOCH":579,"BSTAR":0.021237202,"MEAN_MOTION_DOT":0.0061261,"MEAN_MOTION_DDOT":0},{"OBJECT_NAME":"STARLINK-2745","OBJECT_ID":"2021-044AK","EPOCH":"2026-01-28T23:30:13.715424","MEAN_MOTION":15.06409164,"ECCENTRICITY":0.00016124,"INCLINATION":53.0536,"RA_OF_ASC_NODE":290.1928,"ARG_OF_PERICENTER":84.5901,"MEAN_ANOMALY":275.5272,"EPHEMERIS_TYPE":0,"CLASSIFICATION_TYPE":"U","NORAD_CAT_ID":48671,"ELEMENT_SET_NO":999,"REV_AT_EPOCH":25785,"BSTAR":0.0011448176,"MEAN_MOTION_DOT":0.00016816,"MEAN_MOTION_DDOT":0},{"OBJECT_NAME":"STARLINK-2705","OBJECT_ID":"2021-044AL","EPOCH":"2026-01-29T00:00:02.000160","MEAN_MOTION":15.27810392,"ECCENTRICITY":0.0001826,"INCLINATION":53.1456,"RA_OF_ASC_NODE":288.7458,"ARG_OF_PERICENTER":102.7375,"MEAN_ANOMALY":46.0235,"EPHEMERIS_TYPE":0,"CLASSIFICATION_TYPE":"U","NORAD_CAT_ID":48672,"ELEMENT_SET_NO":999,"REV_AT_EPOCH":554,"BSTAR":0.045497787,"MEAN_MOTION_DOT":0.01381037,"MEAN_MOTION_DDOT":0},{"OBJECT_NAME":"STARLINK-2711","OBJECT_ID":"2021-044AM","EPOCH":"2026-01-28T22:37:04.498752","MEAN_MOTION":15.06405155,"ECCENTRICITY":0.00015099,"INCLINATION":53.0555,"RA_OF_ASC_NODE":290.0503,"ARG_OF_PERICENTER":84.8266,"MEAN_ANOMALY":275.2895,"EPHEMERIS_TYPE":0,"CLASSIFICATION_TYPE":"U","NORAD_CAT_ID":48673,"ELEMENT_SET_NO":999,"REV_AT_EPOCH":25785,"BSTAR":0.00011241246,"MEAN_MOTION_DOT":1.393e-5,"MEAN_MOTION_DDOT":0},{"OBJECT_NAME":"STARLINK-2712","OBJECT_ID":"2021-044AN","EPOCH":"2026-01-28T22:47:41.284032","MEAN_MOTION":15.06440046,"ECCENTRICITY":0.00010853,"INCLINATION":53.0544,"RA_OF_ASC_NODE":290.1314,"ARG_OF_PERICENTER":79.4272,"MEAN_ANOMALY":280.6839,"EPHEMERIS_TYPE":0,"CLASSIFICATION_TYPE":"U","NORAD_CAT_ID":48674,"ELEMENT_SET_NO":999,"REV_AT_EPOCH":25785,"BSTAR":-0.00068254288,"MEAN_MOTION_DOT":-0.00010444,"MEAN_MOTION_DDOT":0},{"OBJECT_NAME":"STARLINK-2746","OBJECT_ID":"2021-044AQ","EPOCH":"2026-01-28T22:21:10.458720","MEAN_MOTION":15.0639433,"ECCENTRICITY":0.00013832,"INCLINATION":53.0567,"RA_OF_ASC_NODE":290.1003,"ARG_OF_PERICENTER":57.7581,"MEAN_ANOMALY":302.3542,"EPHEMERIS_TYPE":0,"CLASSIFICATION_TYPE":"U","NORAD_CAT_ID":48676,"ELEMENT_SET_NO":999,"REV_AT_EPOCH":25785,"BSTAR":0.00018542249,"MEAN_MOTION_DOT":2.481e-5,"MEAN_MOTION_DDOT":0},{"OBJECT_NAME":"STARLINK-2615","OBJECT_ID":"2021-044AS","EPOCH":"2026-01-29T00:00:02.000160","MEAN_MOTION":15.30995291,"ECCENTRICITY":0.00012613,"INCLINATION":53.1591,"RA_OF_ASC_NODE":288.1832,"ARG_OF_PERICENTER":74.7501,"MEAN_ANOMALY":142.233,"EPHEMERIS_TYPE":0,"CLASSIFICATION_TYPE":"U","NORAD_CAT_ID":48678,"ELEMENT_SET_NO":999,"REV_AT_EPOCH":579,"BSTAR":0.00065844144,"MEAN_MOTION_DOT":0.00019679,"MEAN_MOTION_DDOT":0},{"OBJECT_NAME":"STARLINK-2648","OBJECT_ID":"2021-044AT","EPOCH":"2026-01-28T23:40:46.405344","MEAN_MOTION":15.06405913,"ECCENTRICITY":0.00020927,"INCLINATION":53.0547,"RA_OF_ASC_NODE":289.8512,"ARG_OF_PERICENTER":93.9989,"MEAN_ANOMALY":266.1239,"EPHEMERIS_TYPE":0,"CLASSIFICATION_TYPE":"U","NORAD_CAT_ID":48679,"ELEMENT_SET_NO":999,"REV_AT_EPOCH":25786,"BSTAR":5.6077209e-5,"MEAN_MOTION_DOT":5.54e-6,"MEAN_MOTION_DDOT":0},{"OBJECT_NAME":"STARLINK-2725","OBJECT_ID":"2021-044AV","EPOCH":"2026-01-29T00:00:02.000160","MEAN_MOTION":15.23021066,"ECCENTRICITY":0.00014032,"INCLINATION":53.1277,"RA_OF_ASC_NODE":259.4793,"ARG_OF_PERICENTER":90.9186,"MEAN_ANOMALY":312.5166,"EPHEMERIS_TYPE":0,"CLASSIFICATION_TYPE":"U","NORAD_CAT_ID":48681,"ELEMENT_SET_NO":999,"REV_AT_EPOCH":579,"BSTAR":0.063487602,"MEAN_MOTION_DOT":0.01675962,"MEAN_MOTION_DDOT":0},{"OBJECT_NAME":"STARLINK-2743","OBJECT_ID":"2021-044AW","EPOCH":"2026-01-29T00:00:02.000160","MEAN_MOTION":15.26117947,"ECCENTRICITY":0.0001512,"INCLINATION":53.1399,"RA_OF_ASC_NODE":249.2301,"ARG_OF_PERICENTER":104.2936,"MEAN_ANOMALY":49.876,"EPHEMERIS_TYPE":0,"CLASSIFICATION_TYPE":"U","NORAD_CAT_ID":48682,"ELEMENT_SET_NO":999,"REV_AT_EPOCH":579,"BSTAR":0.056095577,"MEAN_MOTION_DOT":0.01617476,"MEAN_MOTION_DDOT":0},{"OBJECT_NAME":"STARLINK-2756","OBJECT_ID":"2021-044AX","EPOCH":"2026-01-29T00:00:02.000160","MEAN_MOTION":15.22022591,"ECCENTRICITY":0.00012768,"INCLINATION":53.1236,"RA_OF_ASC_NODE":249.2944,"ARG_OF_PERICENTER":92.7669,"MEAN_ANOMALY":180.7142,"EPHEMERIS_TYPE":0,"CLASSIFICATION_TYPE":"U","NORAD_CAT_ID":48683,"ELEMENT_SET_NO":999,"REV_AT_EPOCH":579,"BSTAR":0.065472164,"MEAN_MOTION_DOT":0.01650276,"MEAN_MOTION_DDOT":0},{"OBJECT_NAME":"STARLINK-2741","OBJECT_ID":"2021-044AY","EPOCH":"2026-01-28T22:21:38.577600","MEAN_MOTION":15.29377098,"ECCENTRICITY":6.223e-5,"INCLINATION":53.1581,"RA_OF_ASC_NODE":262.5861,"ARG_OF_PERICENTER":72.8151,"MEAN_ANOMALY":287.2918,"EPHEMERIS_TYPE":0,"CLASSIFICATION_TYPE":"U","NORAD_CAT_ID":48684,"ELEMENT_SET_NO":999,"REV_AT_EPOCH":25824,"BSTAR":8.9058999e-5,"MEAN_MOTION_DOT":2.217e-5,"MEAN_MOTION_DDOT":0},{"OBJECT_NAME":"STARLINK-2751","OBJECT_ID":"2021-044AZ","EPOCH":"2026-01-29T00:00:02.000160","MEAN_MOTION":15.24277418,"ECCENTRICITY":0.00013903,"INCLINATION":53.1334,"RA_OF_ASC_NODE":249.2171,"ARG_OF_PERICENTER":113.2412,"MEAN_ANOMALY":24.6935,"EPHEMERIS_TYPE":0,"CLASSIFICATION_TYPE":"U","NORAD_CAT_ID":48685,"ELEMENT_SET_NO":999,"REV_AT_EPOCH":575,"BSTAR":0.062927225,"MEAN_MOTION_DOT":0.01699413,"MEAN_MOTION_DDOT":0},{"OBJECT_NAME":"STARLINK-2629","OBJECT_ID":"2021-044BA","EPOCH":"2026-01-28T21:35:26.748096","MEAN_MOTION":15.0640127,"ECCENTRICITY":0.00018267,"INCLINATION":53.0548,"RA_OF_ASC_NODE":255.5244,"ARG_OF_PERICENTER":62.9077,"MEAN_ANOMALY":297.2098,"EPHEMERIS_TYPE":0,"CLASSIFICATION_TYPE":"U","NORAD_CAT_ID":48686,"ELEMENT_SET_NO":999,"REV_AT_EPOCH":25833,"BSTAR":0.0001241625,"MEAN_MOTION_DOT":1.568e-5,"MEAN_MOTION_DDOT":0},{"OBJECT_NAME":"STARLINK-2627","OBJECT_ID":"2021-044BB","EPOCH":"2026-01-28T20:59:32.514432","MEAN_MOTION":15.06392752,"ECCENTRICITY":0.00013558,"INCLINATION":53.0552,"RA_OF_ASC_NODE":245.3544,"ARG_OF_PERICENTER":91.6728,"MEAN_ANOMALY":268.4417,"EPHEMERIS_TYPE":0,"CLASSIFICATION_TYPE":"U","NORAD_CAT_ID":48687,"ELEMENT_SET_NO":999,"REV_AT_EPOCH":25847,"BSTAR":0.00014589991,"MEAN_MOTION_DOT":1.892e-5,"MEAN_MOTION_DDOT":0}]
