STARLINK-2707           
1 48669U 21044AH  26029.00002315  .00014343  00000+0  50886-3 0  9998
2 48669  53.1551 288.3944 0001848  90.6836 193.0026 15.29326662  5745
STARLINK-2763           
1 48670U 21044AJ  26029.00002315  .00612610  00000+0  21237-1 0  9997
2 48670  53.1455 288.5665 0001560  92.1169 116.5335 15.27041037  5795
STARLINK-2745           
1 48671U 21044AK  26028.97932541  .00016816  00000+0  11448-2 0  9996
2 48671  53.0536 290.1928 0001612  84.5901 275.5272 15.06409164257851
STARLINK-2705           
1 48672U 21044AL  26029.00002315  .01381037  00000+0  45498-1 0  9991
2 48672  53.1456 288.7458 0001826 102.7375  46.0235 15.27810392  5549
STARLINK-2711           
1 48673U 21044AM  26028.94241318  .00001393  00000+0  11241-3 0  9996
2 48673  53.0555 290.0503 0001509  84.8266 275.2895 15.06405155257858
STARLINK-2712           
1 48674U 21044AN  26028.94978338 -.00010444  00000+0 -68254-3 0  9991
2 48674  53.0544 290.1314 0001085  79.4272 280.6839 15.06440046257850
STARLINK-2746           
1 48676U 21044AQ  26028.93137105  .00002481  00000+0  18542-3 0  9996
2 48676  53.0567 290.1003 0001383  57.7581 302.3542 15.06394330257852
STARLINK-2615           
1 48678U 21044AS  26029.00002315  .00019679  00000+0  65844-3 0  9995
2 48678  53.1591 288.1832 0001261  74.7501 142.2330 15.30995291  5795
STARLINK-2648           
1 48679U 21044AT  26028.98664821  .00000554  00000+0  56077-4 0  9999
2 48679  53.0547 289.8512 0002092  93.9989 266.1239 15.06405913257866
STARLINK-2725           
1 48681U 21044AV  26029.00002315  .01675962  00000+0  63488-1 0  9993
2 48681  53.1277 259.4793 0001403  90.9186 312.5166 15.23021066  5795
STARLINK-2743           
1 48682U 21044AW  26029.00002315  .01617476  00000+0  56096-1 0  9997
2 48682  53.1399 249.2301 0001512 104.2936  49.8760 15.26117947  5793
STARLINK-2756           
1 48683U 21044AX  26029.00002315  .01650276  00000+0  65472-1 0  9991
2 48683  53.1236 249.2944 0001276  92.7669 180.7142 15.22022591  5793
STARLINK-2741           
1 48684U 21044AY  26028.93169650  .00002217  00000+0  89059-4 0  9994
2 48684  53.1581 262.5861 0000622  72.8151 287.2918 15.29377098258248
STARLINK-2751           
1 48685U 21044AZ  26029.00002315  .01699413  00000+0  62927-1 0  9991
2 48685  53.1334 249.2171 0001390 113.2412  24.6935 15.24277418  5752
STARLINK-2629           
1 48686U 21044BA  26028.89961514  .00001568  00000+0  12416-3 0  9990
2 48686  53.0548 255.5244 0001826  62.9077 297.2098 15.06401270258338
STARLINK-2627           
1 48687U 21044BB  26028.87468188  .00001892  00000+0  14590-3 0  9993
2 48687  53.0552 245.3544 0001355  91.6728 268.4417 15.06392752258477
